POPACS 1                
1 39268U 13055D   22160.66097807  .00011812  00000+0  30376-3 0  9990
2 39268  80.9979 247.8715 0572709 223.9669 131.4607 14.49963896453646
POPACS 2                
1 39269U 13055E   22160.12858180  .00005694  00000+0  15562-3 0  9992
2 39269  81.0106 304.9996 0647654  12.3288 349.2909 14.32838691448998
POPACS 3                
1 39270U 13055F   22160.21334846  .00006602  00000+0  19767-3 0  9993
2 39270  81.0142 337.6203 0690517 104.6593 263.2127 14.21792191427462
ZACUBE-1 (TSHEPISOSAT)  
1 39417U 13066B   22160.33451640  .00001298  00000+0  16389-3 0  9996
2 39417  97.6359 132.1987 0059512  71.7810 288.9870 14.82305501461925
WNISAT-1                
1 39423U 13066H   22160.65300924  .00000276  00000+0  63466-4 0  9990
2 39423  97.7524  42.7068 0174851 161.8236 198.9324 14.53475097453314
TRITON-1                
1 39427U 13066M   22160.77372442  .00000845  00000+0  13999-3 0  9998
2 39427  97.8132  96.9028 0110442 289.6277  69.3036 14.68953263457846
DELFI-N3XT              
1 39428U 13066N   22160.21746865  .00001502  00000+0  23869-3 0  9990
2 39428  97.8145  94.9292 0116172 304.8326  54.1997 14.69155580457321
GOMX-1                  
1 39430U 13066Q   22160.71141888  .00000860  00000+0  16099-3 0  9995
2 39430  97.8107  68.3531 0150714  69.4801 292.2518 14.60159388455160
CUBEBUG-2 (LO-74)       
1 39440U 13066AA  22160.59695853  .00000815  00000+0  11694-3 0  9994
2 39440  97.7257 118.4853 0079351 155.8683 204.6278 14.76979452460328
NEE-02 KRYSAOR          
1 39441U 13066AB  22160.32125464  .00000538  00000+0  81857-4 0  9993
2 39441  97.7368 115.4117 0080797 170.2464 190.0338 14.75723778458831
FUNCUBE-1 (AO-73)       
1 39444U 13066AE  22160.35713603  .00001614  00000+0  19727-3 0  9999
2 39444  97.6239 134.6244 0058270  60.3221 300.3778 14.83381485460320
UWE-3                   
1 39446U 13066AG  22160.36196586  .00001032  00000+0  13900-3 0  9998
2 39446  97.6850 124.7760 0070208 115.0818 245.7702 14.79531746459261
AEROCUBE 5A             
1 39465U 13072D   22160.56450247  .00018695  00000+0  11393-2 0  9991
2 39465 120.4834 283.0585 0197366 269.8822  87.9624 14.95720625148449
AEROCUBE 5B             
1 39466U 13072E   22160.49610177  .00040277  00000+0  15842-2 0  9998
2 39466 120.4625   8.1348 0147405 292.8233  65.7330 15.15853693149525
BRITE-CA1 (TORONTO)     
1 40020U 14033L   22160.71001882  .00000322  00000+0  62950-4 0  9997
2 40020  97.7776 320.0639 0085464 288.4694  70.7236 14.67030865426638
DUCHIFAT-1              
1 40021U 14033M   22160.76608097  .00001768  00000+0  17634-3 0  9997
2 40021  98.0119 110.8278 0014221  68.5620 291.7114 14.92815977433559
NANOSATC-BR1            
1 40024U 14033Q   22160.63102788  .00001603  00000+0  16508-3 0  9999
2 40024  97.9855 104.1013 0013633  74.9359 285.3366 14.91671301433330
QB50P1                  
1 40025U 14033R   22160.60392995  .00001331  00000+0  14215-3 0  9999
2 40025  97.9605  97.9423 0013901  83.6064 276.6736 14.90460409433109
QB50P2                  
1 40032U 14033Y   22160.62641310  .00001390  00000+0  15024-3 0  9991
2 40032  97.9381  93.3755 0013278  81.4370 278.8351 14.89891266432977
PERSEUS-M2              
1 40037U 14033AD  22160.56860003  .00000538  00000+0  66060-4 0  9991
2 40037  97.8970  82.8348 0015780 102.4666 257.8316 14.87086160432456
PERSEUS-M1              
1 40039U 14033AF  22160.49399575  .00000534  00000+0  66110-4 0  9998
2 40039  97.8874  80.5386 0015621 101.8334 258.4635 14.86696242432332
POLYITAN-1              
1 40042U 14033AJ  22160.55117865  .00001678  00000+0  17758-3 0  9992
2 40042  97.9709  99.0687 0016113  76.3353 283.9658 14.90470950432987
TIGRISAT                
1 40043U 14033AK  22160.49431232  .00000720  00000+0  11136-3 0  9994
2 40043  97.6565 350.1848 0059258 180.8538 179.2581 14.74989427428756
AEROCUBE 6A             
1 40045U 14033AM  22160.53912791  .00000822  00000+0  12232-3 0  9996
2 40045  97.6672 358.9657 0057111 168.4989 191.7542 14.76372885428852
AEROCUBE 6B             
1 40046U 14033AN  22160.51799222  .00001350  00000+0  19504-3 0  9993
2 40046  97.6584 357.4150 0056228 166.9075 193.3611 14.76685486428998
UKUBE-1                 
1 40074U 14037F   22160.47001956  .00001136  00000+0  13897-3 0  9994
2 40074  98.3830  40.7222 0003743 332.6770  27.4244 14.85373044428882
BRITE-PL2 (HEWELIUSZ)   
1 40119U 14049B   22160.52819096  .00000615  00000+0  78116-4 0  9992
2 40119  97.8831 256.2346 0015809 267.7327  92.2078 14.85113250422835
FIREBIRD 4              
1 40378U 15003C   22160.47725254  .00012365  00000+0  37143-3 0  9995
2 40378  99.1030  23.8198 0101967  52.5354 308.5101 15.29561791407213
GRIFEX                  
1 40379U 15003D   22160.56879614  .00008182  00000+0  29098-3 0  9998
2 40379  99.1135   9.9398 0117310  93.7696 267.6958 15.22982366406438
CP10 (EXOCUBE)          
1 40380U 15003E   22160.52155927  .00006333  00000+0  24487-3 0  9993
2 40380  99.1222   2.7585 0124962 117.4882 243.9115 15.19680980405959
TIANWANG 1A (TW-1A)     
1 40928U 15051D   22160.54016359  .00031558  00000+0  40349-3 0  9993
2 40928  97.0390 183.2637 0009215  70.3731  81.7713 15.59126498377005
EXACTVIEW 9             
1 40936U 15052G   22160.27581187  .00001179  00000+0  74411-4 0  9993
2 40936   6.0024 231.9355 0009979  38.8258 321.2586 14.77142642362008
AEROCUBE 5C             
1 40965U 15058B   22160.85974508  .00000482  00000+0  70655-4 0  9990
2 40965  64.7765 114.3952 0193947 202.7090 156.5352 14.75591610147849
AEROCUBE 7              
1 40966U 15058C   22160.25135230  .00000655  00000+0  88561-4 0  9993
2 40966  64.7765 113.4595 0192079 202.5736 156.6839 14.76134877147753
ATHENOXAT 1             
1 41168U 15077C   22160.34497929  .00008320  00000+0  33244-3 0  9999
2 41168  14.9928 150.5246 0009619 120.6166 275.5044 15.20804348359071
GALASSIA                
1 41170U 15077E   22160.58608787  .00006966  00000+0  27804-3 0  9993
2 41170  14.9870 139.4743 0010894 159.4631 200.6130 15.20198049359026
VELOX-II                
1 41171U 15077F   22160.48844198  .00005229  00000+0  23070-3 0  9993
2 41171  14.9903 213.0257 0007732 356.9921   3.0353 15.15675668358466
HORYU-4                 
1 41340U 16012D   22160.40443957  .00002410  00000+0  16708-3 0  9990
2 41340  31.0054  50.5282 0012998 120.3590 239.8333 15.03273127346519
E-ST@R-II               
1 41459U 16025D   22160.42217379  .00004670  00000+0  20680-3 0  9998
2 41459  98.1845 324.9809 0144414 296.7074  61.9457 15.13290085336286
AAUSAT 4                
1 41460U 16025E   22160.43828082  .00009145  00000+0  35729-3 0  9992
2 41460  98.1803 331.1285 0125638 272.8337  85.8766 15.19043931336723
BEESAT-4                
1 41619U 16040W   22160.59915275  .00009394  00000+0  31643-3 0  9990
2 41619  97.2175 211.4391 0011171 139.1677 221.0403 15.30903977319526
RAVAN                   
1 41849U 16067B   22160.44384713  .00001972  00000+0  16050-3 0  9994
2 41849  97.9997 297.1898 0017313  11.7436 348.4188 15.00677156304796
CELTEE 1                
1 41850U 16067C   22160.29995558  .00001376  00000+0  12050-3 0  9998
2 41850  97.9956 292.1245 0007998  12.2486 347.8929 14.98420895304533
OPTICUBE 04             
1 41851U 16067D   22160.81123889  .00000340  00000+0  34260-4 0  9995
2 41851  97.9950 291.7132 0008971  12.3812 347.7628 14.97761496304566
AEROCUBE 8D             
1 41852U 16067E   22160.35578165  .00001331  00000+0  11700-3 0  9990
2 41852  97.9931 291.2437 0009022  11.5233 348.6193 14.98313415304488
AEROCUBE 8C             
1 41853U 16067F   22160.60382577  .00000764  00000+0  69451-4 0  9995
2 41853  97.9941 291.3232 0010142  14.1658 345.9846 14.98293366304510
PROMETHEUS 2-1          
1 41854U 16067G   22160.24513238  .00003125  00000+0  26005-3 0  9997
2 41854  97.9936 292.0009 0009651  25.3929 334.7766 14.99414852304516
PROMETHEUS 2-3          
1 41855U 16067H   22160.83843421  .00002732  00000+0  22796-3 0  9999
2 41855  97.9927 292.6885 0008599  20.6181 339.5387 14.99433174304603
INS-1B                  
1 41954U 17008G   22160.46817327  .00008817  00000+0  29396-3 0  9993
2 41954  97.2582 220.5190 0006097 256.0469 104.0095 15.31301220295521
BGUSAT                  
1 41999U 17008BD  22160.41653502  .00020514  00000+0  50924-3 0  9999
2 41999  97.2815 230.8499 0004491 232.4673 127.6166 15.40364069295403
DIDO-2                  
1 42000U 17008BE  22160.63318174  .00004287  00000+0  15736-3 0  9991
2 42000  97.2570 220.1238 0005717 288.1808  71.8810 15.28454768294876
PEASSS                  
1 42015U 17008BV  22160.42719272  .00007475  00000+0  24853-3 0  9990
2 42015  97.2637 223.6856 0003638 279.2147  80.8683 15.31454121295547
AL-FARABI 1             
1 42016U 17008BW  22160.46268634  .00010909  00000+0  33118-3 0  9996
2 42016  97.2698 226.6826 0003232 266.7493  93.3381 15.34254119295823
NAYIF-1 (EO-88)         
1 42017U 17008BX  22160.15232315  .00010391  00000+0  31435-3 0  9995
2 42017  97.2693 226.3877 0003378 264.8244  95.2613 15.34376816295802
UCLSAT                  
1 42765U 17036A   22160.34309622  .00008324  00000+0  29243-3 0  9990
2 42765  97.1981 203.2617 0008842   5.8525 354.2818 15.29593178276612
LITUANICASAT-2          
1 42768U 17036D   22160.58117384  .00016248  00000+0  47680-3 0  9990
2 42768  97.2066 206.1082 0008828 342.5883  17.5057 15.35197482276046
AALTO-1                 
1 42775U 17036L   22160.56233086  .00004670  00000+0  18663-3 0  9999
2 42775  97.1981 198.6027 0012180   3.5888 356.5436 15.25526870275578
URSA MAIOR              
1 42776U 17036M   22160.54610331  .00005012  00000+0  19688-3 0  9999
2 42776  97.1996 199.3071 0011809   2.7283 357.4018 15.26067949275607
COMPASS 2               
1 42777U 17036N   22160.39587853  .00012241  00000+0  39461-3 0  9998
2 42777  97.2053 205.3376 0008336 350.7484   9.3604 15.32278023275911
